STARLINK-11560 [DTC]    
1 62917U 25027L   25069.91242692  .00007198  00000+0  44187-4 0  9990
2 62917  42.9982  20.9197 0001632 278.2346  81.8339 15.77859636  5917
STARLINK-11562 [DTC]    
1 62918U 25027M   25069.90755385  .00003082  00000+0  20570-4 0  9996
2 62918  42.9989  20.8822 0001586 276.6098  83.4591 15.77855146  5979
STARLINK-11457 [DTC]    
1 62919U 25027N   25068.00002315  .00023355  00000+0  13684-3 0  9997
2 62919  42.9995  32.4317 0001325 269.5050  69.7613 15.77833525  5648
STARLINK-32921          
1 62920U 25027P   25068.00002315  .00042477  00000+0  10195-2 0  9998
2 62920  43.0003  36.1509 0001455 265.9452   5.3155 15.40669352  5660
STARLINK-32917          
1 62921U 25027Q   25069.86166168  .00022664  00000+0  41056-3 0  9998
2 62921  43.0023  24.9606 0002472 109.0066 251.1061 15.49194541  5877
STARLINK-32916          
1 62922U 25027R   25068.00002315 -.00057792  00000+0 -10440-2 0  9991
2 62922  43.0000  35.8216 0001386 269.6246 137.0738 15.48984551  5664
STARLINK-32905          
1 62923U 25027S   25069.91668981  .00044254  00000+0  10611-2 0  9997
2 62923  43.0005  24.8960 0001469 261.5057 300.2497 15.40683182  5964
STARLINK-32871          
1 62924U 25027T   25069.60304071  .00001065  00000+0  25256-4 0  9997
2 62924  43.0008  26.4594 0001406 258.9720 101.0982 15.48966029  5831
STARLINK-32920          
1 62925U 25027U   25069.60201563  .00001110  00000+0  26076-4 0  9992
2 62925  43.0026  26.4502 0001449 266.7203  93.3491 15.48961178  5839
STARLINK-32922          
1 62926U 25027V   25069.60273094 -.00008381  00000+0 -14563-3 0  9997
2 62926  43.0026  26.4581 0001183 310.6597  49.4160 15.48917046  5837
STARLINK-32891          
1 62927U 25027W   25069.91668981  .00079764  00000+0  18981-2 0  9993
2 62927  43.0004  24.7748 0001858 254.6164 356.8122 15.40679467  5967
STARLINK-32728          
1 62948U 25029A   25070.00002315  .00013193  00000+0  24491-3 0  9991
2 62948  53.1598 125.1634 0001090  96.4665  26.5939 15.49303263  5274
STARLINK-32857          
1 62949U 25029B   25069.91668981 -.01513268  00000+0 -38958-1 0  9999
2 62949  53.1598 125.6200 0001063  82.0717 266.6527 15.41814671  5641
STARLINK-32850          
1 62950U 25029C   25070.00002315  .00018275  00000+0  33590-3 0  9990
2 62950  53.1597 125.1558 0001077 105.1535  21.7383 15.49306424  5609
STARLINK-32875          
1 62951U 25029D   25070.08335648 -.01487281  00000+0 -36561-1 0  9996
2 62951  53.1597 124.7913 0001414  94.1282 120.4747 15.43124229  5607
STARLINK-32865          
1 62952U 25029E   25070.00002315  .00016322  00000+0  30094-3 0  9999
2 62952  53.1598 125.1517 0001039  95.9314  32.8770 15.49306509  5591
STARLINK-32884          
1 62953U 25029F   25069.91668981 -.01544689  00000+0 -31848-1 0  9996
2 62953  53.1599 125.5435 0001267  85.5731 301.4088 15.48324689  5648
STARLINK-32874          
1 62954U 25029G   25069.91668981 -.00026524  00000+0 -47014-3 0  9993
2 62954  53.1599 125.5385 0001081  85.9768 303.5146 15.49328105  5647
STARLINK-32880          
1 62955U 25029H   25070.00002315  .00094248  00000+0  16882-2 0  9993
2 62955  53.1597 125.1359 0000492 157.0892 339.3985 15.49208461  5591
STARLINK-32815          
1 62956U 25029J   25069.91668981 -.01513445  00000+0 -34528-1 0  9993
2 62956  53.1598 125.5478 0001148  85.6670 298.9975 15.45360434  5648
STARLINK-32879          
1 62957U 25029K   25070.00002315 -.01293320  00000+0 -25485-1 0  9998
2 62957  53.1597 125.1278 0001471 103.1767  37.1290 15.49557107  5602
STARLINK-32885          
1 62958U 25029L   25069.91668981  .00033073  00000+0  60055-3 0  9992
2 62958  53.1599 125.5225 0001146 117.4262 279.7466 15.49291918  5646
STARLINK-32896          
1 62959U 25029M   25070.00002315  .00026753  00000+0  48758-3 0  9991
2 62959  53.1597 125.1196 0001300  95.9398  48.2033 15.49300329  5602
STARLINK-32877          
1 62960U 25029N   25070.00002315  .00035966  00000+0  65196-3 0  9994
2 62960  53.1597 125.1162 0001003  92.9030  53.1559 15.49299623  5542
STARLINK-32889          
1 62961U 25029P   25069.91668981 -.01514716  00000+0 -35848-1 0  9997
2 62961  53.1598 125.5388 0001141  79.8503 309.0933 15.44295895  5642
