OBJECT_NAME,OBJECT_ID,EPOCH,MEAN_MOTION,ECCENTRICITY,INCLINATION,RA_OF_ASC_NODE,ARG_OF_PERICENTER,MEAN_ANOMALY,EPHEMERIS_TYPE,CLASSIFICATION_TYPE,NORAD_CAT_ID,ELEMENT_SET_NO,REV_AT_EPOCH,BSTAR,MEAN_MOTION_DOT,MEAN_MOTION_DDOT
STARLINK-11560 [DTC],2025-027L,2025-03-10T21:53:53.685888,15.77859636,.0001632,42.9982,20.9197,278.2346,81.8339,0,U,62917,999,591,.44187E-4,.7198E-4,0
STARLINK-11562 [DTC],2025-027M,2025-03-10T21:46:52.652640,15.77855146,.0001586,42.9989,20.8822,276.6098,83.4591,0,U,62918,999,597,.2057E-4,.3082E-4,0
STARLINK-11457 [DTC],2025-027N,2025-03-09T00:00:02.000160,15.77833525,.0001325,42.9995,32.4317,269.5050,69.7613,0,U,62919,999,564,.13684E-3,.23355E-3,0
STARLINK-32921,2025-027P,2025-03-09T00:00:02.000160,15.40669352,.0001455,43.0003,36.1509,265.9452,5.3155,0,U,62920,999,566,.10195E-2,.42477E-3,0
STARLINK-32917,2025-027Q,2025-03-10T20:40:47.569152,15.49194541,.0002472,43.0023,24.9606,109.0066,251.1061,0,U,62921,999,587,.41056E-3,.22664E-3,0
STARLINK-32916,2025-027R,2025-03-09T00:00:02.000160,15.48984551,.0001386,43.0000,35.8216,269.6246,137.0738,0,U,62922,999,566,-.1044E-2,-.57792E-3,0
STARLINK-32905,2025-027S,2025-03-10T22:00:01.999584,15.40683182,.0001469,43.0005,24.8960,261.5057,300.2497,0,U,62923,999,596,.10611E-2,.44254E-3,0
STARLINK-32871,2025-027T,2025-03-10T14:28:22.717344,15.48966029,.0001406,43.0008,26.4594,258.9720,101.0982,0,U,62924,999,583,.25256E-4,.1065E-4,0
STARLINK-32920,2025-027U,2025-03-10T14:26:54.150432,15.48961178,.0001449,43.0026,26.4502,266.7203,93.3491,0,U,62925,999,583,.26076E-4,.111E-4,0
STARLINK-32922,2025-027V,2025-03-10T14:27:55.953216,15.48917046,.0001183,43.0026,26.4581,310.6597,49.4160,0,U,62926,999,583,-.14563E-3,-.8381E-4,0
STARLINK-32891,2025-027W,2025-03-10T22:00:01.999584,15.40679467,.0001858,43.0004,24.7748,254.6164,356.8122,0,U,62927,999,596,.18981E-2,.79764E-3,0
STARLINK-32728,2025-029A,2025-03-11T00:00:02.000160,15.49303263,.000109,53.1598,125.1634,96.4665,26.5939,0,U,62948,999,527,.24491E-3,.13193E-3,0
STARLINK-32857,2025-029B,2025-03-10T22:00:01.999584,15.41814671,.0001063,53.1598,125.6200,82.0717,266.6527,0,U,62949,999,564,-.38958E-1,-.1513268E-1,0
STARLINK-32850,2025-029C,2025-03-11T00:00:02.000160,15.49306424,.0001077,53.1597,125.1558,105.1535,21.7383,0,U,62950,999,560,.3359E-3,.18275E-3,0
STARLINK-32875,2025-029D,2025-03-11T02:00:01.999872,15.43124229,.0001414,53.1597,124.7913,94.1282,120.4747,0,U,62951,999,560,-.36561E-1,-.1487281E-1,0
STARLINK-32865,2025-029E,2025-03-11T00:00:02.000160,15.49306509,.0001039,53.1598,125.1517,95.9314,32.8770,0,U,62952,999,559,.30094E-3,.16322E-3,0
STARLINK-32884,2025-029F,2025-03-10T22:00:01.999584,15.48324689,.0001267,53.1599,125.5435,85.5731,301.4088,0,U,62953,999,564,-.31848E-1,-.1544689E-1,0
STARLINK-32874,2025-029G,2025-03-10T22:00:01.999584,15.49328105,.0001081,53.1599,125.5385,85.9768,303.5146,0,U,62954,999,564,-.47014E-3,-.26524E-3,0
STARLINK-32880,2025-029H,2025-03-11T00:00:02.000160,15.49208461,.0000492,53.1597,125.1359,157.0892,339.3985,0,U,62955,999,559,.16882E-2,.94248E-3,0
STARLINK-32815,2025-029J,2025-03-10T22:00:01.999584,15.45360434,.0001148,53.1598,125.5478,85.6670,298.9975,0,U,62956,999,564,-.34528E-1,-.1513445E-1,0
STARLINK-32879,2025-029K,2025-03-11T00:00:02.000160,15.49557107,.0001471,53.1597,125.1278,103.1767,37.1290,0,U,62957,999,560,-.25485E-1,-.129332E-1,0
STARLINK-32885,2025-029L,2025-03-10T22:00:01.999584,15.49291918,.0001146,53.1599,125.5225,117.4262,279.7466,0,U,62958,999,564,.60055E-3,.33073E-3,0
STARLINK-32896,2025-029M,2025-03-11T00:00:02.000160,15.49300329,.00013,53.1597,125.1196,95.9398,48.2033,0,U,62959,999,560,.48758E-3,.26753E-3,0
STARLINK-32877,2025-029N,2025-03-11T00:00:02.000160,15.49299623,.0001003,53.1597,125.1162,92.9030,53.1559,0,U,62960,999,554,.65196E-3,.35966E-3,0
STARLINK-32889,2025-029P,2025-03-10T22:00:01.999584,15.44295895,.0001141,53.1598,125.5388,79.8503,309.0933,0,U,62961,999,564,-.35848E-1,-.1514716E-1,0
